NORAD_CAT_ID,OBJECT_NAME,OBJECT_TYPE,EPOCH,MEAN_MOTION,ECCENTRICITY,INCLINATION,RA_OF_ASC_NODE,ARG_OF_PERICENTER,MEAN_ANOMALY,BSTAR,MEAN_MOTION_DOT,MEAN_MOTION_DDOT,TLE_LINE0,TLE_LINE1,TLE_LINE2,SEMIMAJOR_AXIS,PERIOD,APOGEE,PERIGEE,DECAYED
53595.0,STARLINK-4684,PAYLOAD,2024-08-17 13:09:28,15.08847303,0.0001082,53.2149,279.1111,87.0761,273.0355,7.7814e-05,9.51e-06,0.0,0 STARLINK-4684,1 53595U 22104H   24230.54825228  .00000951  00000-0  77814-4 0  9999,2 53595  53.2149 279.1111 0001082  87.0761 273.0355 15.08847303109414,6917.858,95.437,540.472,538.975,0.0
53595.0,STARLINK-4684,PAYLOAD,2024-08-18 03:27:57,15.08844639,0.0001173,53.2156,276.4338,87.8933,272.2194,3.5926e-05,2.84e-06,0.0,0 STARLINK-4684,1 53595U 22104H   24231.14441304  .00000284  00000-0  35926-4 0  9992,2 53595  53.2156 276.4338 0001173  87.8933 272.2194 15.08844639110113,6917.866,95.437,540.543,538.92,0.0
53595.0,STARLINK-4684,PAYLOAD,2024-08-18 13:00:15,15.08844961,0.0001236,53.2158,274.6495,97.9519,262.1613,6.5422e-05,7.54e-06,0.0,0 STARLINK-4684,1 53595U 22104H   24231.54184924  .00000754  00000-0  65422-4 0  9994,2 53595  53.2158 274.6495 0001236  97.9519 262.1613 15.08844961110179,6917.865,95.437,540.585,538.875,0.0
53595.0,STARLINK-4684,PAYLOAD,2024-08-19 09:40:17,15.08836875,0.0001153,53.2159,270.7829,85.0527,275.0596,2.2193e-05,6.5e-07,0.0,0 STARLINK-4684,1 53595U 22104H   24232.40297590  .00000065  00000-0  22193-4 0  9997,2 53595  53.2159 270.7829 0001153  85.0527 275.0596 15.08836875109696,6917.89,95.438,540.553,538.957,0.0
53595.0,STARLINK-4684,PAYLOAD,2024-08-20 11:06:27,15.08839944,0.0001207,53.2165,266.0274,95.1203,264.9927,4.182e-05,3.78e-06,0.0,0 STARLINK-4684,1 53595U 22104H   24233.46281471  .00000378  00000-0  41820-4 0  9990,2 53595  53.2165 266.0274 0001207  95.1203 264.9927 15.08839944109851,6917.881,95.438,540.581,538.911,0.0
53595.0,STARLINK-4684,PAYLOAD,2024-08-21 10:57:14,15.08839299,0.0001178,53.2157,261.5664,93.2201,266.8926,8.0899e-05,1e-05,0.0,0 STARLINK-4684,1 53595U 22104H   24234.45641625  .00001000  00000-0  80899-4 0  9993,2 53595  53.2157 261.5664 0001178  93.2201 266.8926 15.08839299110618,6917.883,95.438,540.562,538.933,0.0
